[{"OBJECT_NAME":"CYGFM02","OBJECT_ID":"2016-078C","EPOCH":"2026-03-09T15:36:50.817024","MEAN_MOTION":15.57922145,"ECCENTRICITY":0.00067337,"INCLINATION":34.9409,"RA_OF_ASC_NODE":166.5135,"ARG_OF_PERICENTER":321.9691,"MEAN_ANOMALY":38.0558,"EPHEMERIS_TYPE":0,"CLASSIFICATION_TYPE":"U","NORAD_CAT_ID":41886,"ELEMENT_SET_NO":999,"REV_AT_EPOCH":51360,"BSTAR":0.00045552305,"MEAN_MOTION_DOT":0.00035326,"MEAN_MOTION_DDOT":0},{"OBJECT_NAME":"STARLINK-1279","OBJECT_ID":"2020-019A","EPOCH":"2026-03-09T05:57:01.126944","MEAN_MOTION":15.57042246,"ECCENTRICITY":7.012e-5,"INCLINATION":53.0416,"RA_OF_ASC_NODE":100.83,"ARG_OF_PERICENTER":120.8921,"MEAN_ANOMALY":239.2159,"EPHEMERIS_TYPE":0,"CLASSIFICATION_TYPE":"U","NORAD_CAT_ID":45360,"ELEMENT_SET_NO":999,"REV_AT_EPOCH":33060,"BSTAR":0.00083008269,"MEAN_MOTION_DOT":0.00061081,"MEAN_MOTION_DDOT":0}]
