CYGFM02                 
1 41886U 16078C   26068.65058816  .00035326  00000+0  45552-3 0  9992
2 41886  34.9409 166.5135 0006734 321.9691  38.0558 15.57922145513601
STARLINK-1279           
1 45360U 20019A   26068.24792971  .00061081  00000+0  83008-3 0  9990
2 45360  53.0416 100.8300 0000701 120.8921 239.2159 15.57042246330601
